     2              NAVIGATION DATA                         RINEX VERSION / TYPE
CCRINEXN V1.6.0 UX  CDDIS               30-APR-21 19:31     PGM / RUN BY / DATE 
IGS BROADCAST EPHEMERIS FILE                                COMMENT             
    0.9313D-08  0.1490D-07 -0.5960D-07 -0.1192D-06          ION ALPHA           
    0.8806D+05  0.4915D+05 -0.1311D+06 -0.3277D+06          ION BETA            
   -0.931322574615D-09 0.266453525910D-14   589824     2155 DELTA-UTC: A0,A1,T,W
    18                                                      LEAP SECONDS        
                                                            END OF HEADER       
27 21  4 29 18  0  0.0-0.121437944472D-03-0.670752342558D-11 0.000000000000D+00
    0.810000000000D+02-0.234687500000D+02 0.456376152756D-08 0.222284841593D+01
   -0.136531889439D-05 0.942037592176D-02 0.895932316780D-06 0.515368032455D+04
    0.410400000000D+06-0.201165676117D-06 0.228867586447D+01-0.409781932831D-07
    0.976004296645D+00 0.371968750000D+03 0.614578712539D+00-0.830534595100D-08
   -0.108933108930D-09 0.100000000000D+01 0.215500000000D+04 0.000000000000D+00
    0.200000000000D+01 0.000000000000D+00 0.186264514923D-08 0.810000000000D+02
    0.403218000000D+06 0.400000000000D+01 0.000000000000D+00 0.000000000000D+00
28 21  4 29 18  0  0.0 0.579164363444D-03-0.602540239925D-11 0.000000000000D+00
    0.410000000000D+02 0.146093750000D+03 0.426482050403D-08 0.288872771124D+01
    0.745803117752D-05 0.174651840934D-01 0.475719571114D-05 0.515431653786D+04
    0.410400000000D+06 0.309199094772D-06 0.133510609682D+01 0.763684511185D-07
    0.972968936199D+00 0.291343750000D+03-0.133844184556D+01-0.780425364992D-08
    0.215366113720D-09 0.100000000000D+01 0.215500000000D+04 0.000000000000D+00
    0.200000000000D+01 0.000000000000D+00-0.111758708954D-07 0.410000000000D+02
    0.405012000000D+06 0.400000000000D+01 0.000000000000D+00 0.000000000000D+00
29 21  4 29 18  0  0.0-0.338526442647D-03-0.659383658785D-11 0.000000000000D+00
    0.330000000000D+02-0.514687500000D+02 0.444554231754D-08 0.241762129975D+01
   -0.252760946751D-05 0.178553129081D-02 0.294297933578D-06 0.515364831734D+04
    0.410400000000D+06 0.577419996262D-07 0.236164039877D+01-0.353902578354D-07
    0.984074882143D+00 0.384656250000D+03 0.211418714882D+01-0.841606484860D-08
   -0.209651589973D-09 0.100000000000D+01 0.215500000000D+04 0.000000000000D+00
    0.200000000000D+01 0.000000000000D+00-0.977888703346D-08 0.330000000000D+02
    0.403218000000D+06 0.400000000000D+01 0.000000000000D+00 0.000000000000D+00
30 21  4 29 18  0  0.0-0.419494230300D-03-0.511590769747D-11 0.000000000000D+00
    0.440000000000D+02 0.369062500000D+02 0.481520057243D-08-0.673162551465D+00
    0.195950269699D-05 0.513782107737D-02 0.107698142529D-04 0.515371703148D+04
    0.410400000000D+06 0.137835741043D-06 0.220215510323D+00 0.763684511185D-07
    0.937453834909D+00 0.156781250000D+03-0.279808930667D+01-0.808390815579D-08
   -0.353586156854D-09 0.100000000000D+01 0.215500000000D+04 0.000000000000D+00
    0.200000000000D+01 0.000000000000D+00 0.372529029846D-08 0.440000000000D+02
    0.403218000000D+06 0.400000000000D+01 0.000000000000D+00 0.000000000000D+00
31 21  4 29 18  0  0.0-0.114435795695D-03-0.216004991671D-11 0.000000000000D+00
    0.100000000000D+03 0.374687500000D+02 0.442697011536D-08-0.108561425589D+01
    0.184215605259D-05 0.994484103285D-02 0.111069530249D-04 0.515377960396D+04
    0.410400000000D+06 0.113621354103D-06 0.219570660422D+00-0.178813934326D-06
    0.956559610856D+00 0.156250000000D+03 0.259363489245D+00-0.785175562857D-08
   -0.369301097159D-09 0.100000000000D+01 0.215500000000D+04 0.000000000000D+00
    0.280000000000D+01 0.000000000000D+00-0.130385160446D-07 0.100000000000D+03
    0.403218000000D+06 0.400000000000D+01 0.000000000000D+00 0.000000000000D+00
32 21  4 29 18  0  0.0 0.218716450036D-04-0.341060513165D-12 0.000000000000D+00
    0.390000000000D+02-0.114375000000D+02 0.483877298289D-08 0.296950992177D+01
   -0.528991222382D-06 0.489835278131D-02 0.589527189732D-05 0.515365365219D+04
    0.410400000000D+06 0.260770320892D-07-0.859814752153D+00-0.484287738800D-07
    0.957049031562D+00 0.263562500000D+03-0.238000353460D+01-0.803319175754D-08
   -0.360729311538D-10 0.100000000000D+01 0.215500000000D+04 0.000000000000D+00
    0.200000000000D+01 0.000000000000D+00 0.465661287308D-09 0.390000000000D+02
    0.403218000000D+06 0.400000000000D+01 0.000000000000D+00 0.000000000000D+00
 1 21  4 29 19 59 44.0 0.702983699739D-03-0.104591890704D-10 0.000000000000D+00
    0.600000000000D+01-0.120812500000D+03 0.394766443607D-08 0.110518200674D+01
   -0.612996518612D-05 0.107938682195D-01 0.897236168385D-05 0.515368782043D+04
    0.417584000000D+06-0.102445483208D-06-0.293753816167D+01 0.104308128357D-06
    0.984427992532D+00 0.223250000000D+03 0.834964099835D+00-0.787068498848D-08
   -0.218580533328D-09 0.100000000000D+01 0.215500000000D+04 0.000000000000D+00
    0.200000000000D+01 0.000000000000D+00 0.512227416039D-08 0.600000000000D+01
    0.415128000000D+06 0.400000000000D+01 0.000000000000D+00 0.000000000000D+00
20 21  4 29 19 59 44.0 0.522680580616D-03-0.341060513165D-12 0.000000000000D+00
    0.400000000000D+01-0.128437500000D+02 0.499127933539D-08 0.105571512302D+01
   -0.618398189545D-06 0.605393911246D-02 0.103730708361D-04 0.515170796585D+04
    0.417584000000D+06 0.540167093277D-07-0.204501472346D+01 0.160187482834D-06
    0.937697833553D+00 0.166343750000D+03 0.302903113569D+01-0.816284001505D-08
    0.477519890620D-09 0.100000000000D+01 0.215500000000D+04 0.000000000000D+00
    0.200000000000D+01 0.000000000000D+00-0.838190317154D-08 0.400000000000D+01
    0.413706000000D+06 0.400000000000D+01 0.000000000000D+00 0.000000000000D+00
24 21  4 29 19 59 44.0 0.451551750302D-04 0.271711542155D-10 0.000000000000D+00
    0.160000000000D+02 0.260000000000D+02 0.490306137504D-08 0.146280946345D+01
    0.130943953991D-05 0.110568994423D-01 0.108480453491D-04 0.515373766708D+04
    0.417584000000D+06-0.167638063431D-06 0.124808537017D+00 0.121071934700D-06
    0.935606321519D+00 0.156406250000D+03 0.738253372473D+00-0.817712632442D-08
   -0.532879339421D-09 0.100000000000D+01 0.215500000000D+04 0.000000000000D+00
    0.200000000000D+01 0.000000000000D+00 0.279396772385D-08 0.160000000000D+02
    0.410467000000D+06 0.400000000000D+01 0.000000000000D+00 0.000000000000D+00
25 21  4 29 19 59 44.0 0.127948354930D-03 0.716227077646D-11 0.000000000000D+00
    0.560000000000D+02 0.156437500000D+03 0.452625996547D-08-0.530314638488D+00
    0.829994678497D-05 0.992326671258D-02 0.637769699097D-05 0.515364390183D+04
    0.417584000000D+06 0.484287738800D-07 0.123953432580D+01 0.143423676491D-06
    0.961209292625D+00 0.263250000000D+03 0.965076466829D+00-0.831570352529D-08
    0.313227332890D-09 0.100000000000D+01 0.215500000000D+04 0.000000000000D+00
    0.200000000000D+01 0.000000000000D+00 0.558793544769D-08 0.560000000000D+02
    0.410418000000D+06 0.400000000000D+01 0.000000000000D+00 0.000000000000D+00
31 21  4 29 19 59 44.0-0.114453490824D-03-0.216004991671D-11 0.000000000000D+00
    0.600000000000D+01 0.391250000000D+02 0.438482550272D-08-0.378458282249D-01
    0.222772359848D-05 0.994483823888D-02 0.113770365715D-04 0.515377946472D+04
    0.417584000000D+06 0.145286321640D-06 0.219514105472D+00-0.130385160446D-07
    0.956556276866D+00 0.156781250000D+03 0.259376772541D+00-0.795461705601D-08
   -0.426803492364D-09 0.100000000000D+01 0.215500000000D+04 0.000000000000D+00
    0.200000000000D+01 0.000000000000D+00-0.130385160446D-07 0.600000000000D+01
    0.410418000000D+06 0.400000000000D+01 0.000000000000D+00 0.000000000000D+00
 1 21  4 29 20  0  0.0 0.702982302755D-03-0.104591890704D-10 0.000000000000D+00
    0.880000000000D+02-0.120812500000D+03 0.394766443607D-08 0.110751611594D+01
   -0.612996518612D-05 0.107938738074D-01 0.897236168385D-05 0.515368782425D+04
    0.417600000000D+06-0.100582838059D-06-0.293753828602D+01 0.104308128357D-06
    0.984427986680D+00 0.223250000000D+03 0.834963669737D+00-0.787104214621D-08
   -0.218580533328D-09 0.100000000000D+01 0.215500000000D+04 0.000000000000D+00
    0.280000000000D+01 0.000000000000D+00 0.512227416039D-08 0.880000000000D+02
    0.410418000000D+06 0.400000000000D+01 0.000000000000D+00 0.000000000000D+00
 2 21  4 29 20  0  0.0-0.600015278906D-03-0.329691829393D-11 0.000000000000D+00
    0.400000000000D+02-0.135718750000D+03 0.428160691754D-08 0.137380743662D+01
   -0.753253698349D-05 0.202158583561D-01 0.853277742863D-05 0.515366895485D+04
    0.417600000000D+06-0.651925802231D-07-0.302073948864D+01-0.525265932083D-06
    0.963117209903D+00 0.220843750000D+03-0.152225031490D+01-0.801211945122D-08
   -0.171435712414D-09 0.100000000000D+01 0.215500000000D+04 0.000000000000D+00
    0.200000000000D+01 0.000000000000D+00-0.176951289177D-07 0.400000000000D+02
    0.414678000000D+06 0.400000000000D+01 0.000000000000D+00 0.000000000000D+00
 3 21  4 29 20  0  0.0-0.150464475155D-03-0.104591890704D-10 0.000000000000D+00
    0.360000000000D+02-0.124687500000D+02 0.436482466961D-08 0.405333052892D-01
   -0.635161995888D-06 0.341886107344D-02 0.932067632675D-05 0.515360544205D+04
    0.417600000000D+06 0.391155481338D-07-0.190004774731D+01 0.502914190292D-07
    0.968769935602D+00 0.202375000000D+03 0.826700106326D+00-0.785747015231D-08
    0.460376319379D-09 0.100000000000D+01 0.215500000000D+04 0.000000000000D+00
    0.200000000000D+01 0.000000000000D+00 0.186264514923D-08 0.360000000000D+02
    0.410418000000D+06 0.400000000000D+01 0.000000000000D+00 0.000000000000D+00
